[{ "_id" : "tTJrEEcDjFPyyLRHc", "city" : "Mumbai", "pincode" : "400705", "area" : "Krishi Bazar", "longitude" : 73.0191934, "latitude" : 19.0690191 },
{ "_id" : "rTDLmWfbXsHkvMXHt", "city" : "Mumbai", "pincode" : "400706", "area" : "Nerul", "longitude" : 73.0209949, "latitude" : 19.0351115 },
{ "_id" : "DHEZB8Rtyv4R4bm2c", "city" : "Mumbai", "pincode" : "400707", "area" : "J.N.P.T.", "longitude" : 72.950486, "latitude" : 18.949716 },
{ "_id" : "idRsndRrqzuHpNT7Y", "city" : "Bangalore", "pincode" : "560083", "area" : "Bannerghatta", "longitude" : 0, "latitude" : 0 },
{ "_id" : "hrDaajtW8iM6c6QCu", "city" : "Bangalore", "pincode" : "560084", "area" : "Kacharakanahalli, Lingarajapuram, St. Thomas Town", "longitude" : 0, "latitude" : 0 },
{ "_id" : "bLSveDkMdsWXjrZ5m", "city" : "Bangalore", "pincode" : "560085", "area" : "Kathriguppe, Hosakerehalli, Girinagar", "longitude" : 0, "latitude" : 0 },
{ "_id" : "9Av8qJwDG97auqmh2", "city" : "Bangalore", "pincode" : "560086", "area" : "Mahalakshmipuram Layout, West of Chord Road", "longitude" : 0, "latitude" : 0 },
{ "_id" : "qpyrSuKG9t8daRYHN", "city" : "Bangalore", "pincode" : "560087", "area" : "Gunjur, Muthusandra, Vartur", "longitude" : 0, "latitude" : 0 },
{ "_id" : "nweg5uhuQmr9iT5pb", "city" : "Bangalore", "pincode" : "560090", "area" : "Tarabanahalli", "longitude" : 0, "latitude" : 0 },
{ "_id" : "dGbDk2BKqhgGCP5M3", "city" : "Bangalore", "pincode" : "560091", "area" : "Herohalli", "longitude" : 0, "latitude" : 0 },
{ "_id" : "vCHqMNmehrfBtqq2w", "city" : "Bangalore", "pincode" : "560092", "area" : "Amruthahalli", "longitude" : 0, "latitude" : 0 },
{ "_id" : "J2v3DmNLi8E6LNpks", "city" : "Bangalore", "pincode" : "560093", "area" : "C V Raman Nagar", "longitude" : 0, "latitude" : 0 },
{ "_id" : "JrLXJgr5ggminfYSe", "city" : "Bangalore", "pincode" : "560094", "area" : "ISRO", "longitude" : 0, "latitude" : 0 },
{ "_id" : "64HD3dqByFFRCNRPi", "city" : "Bangalore", "pincode" : "560095", "area" : "Koramangala", "longitude" : 0, "latitude" : 0 },
{ "_id" : "duY32bTfbSAHEpwGX", "city" : "Bangalore", "pincode" : "560096", "area" : "Kanteeravanagar, Nandini Layout", "longitude" : 0, "latitude" : 0 },
{ "_id" : "K38uJ5sPHDWr2N8Qg", "city" : "Bangalore", "pincode" : "560097", "area" : "Chikkabettahalli", "longitude" : 0, "latitude" : 0 },
{ "_id" : "zPbANynzp8XiEHEGC", "city" : "Bangalore", "pincode" : "560098", "area" : "Kenchanahalli, Rajarajeshwarinagar", "longitude" : 0, "latitude" : 0 },
{ "_id" : "Y4MPQBpXX3Z2B66Xi", "city" : "Bangalore", "pincode" : "560099", "area" : "Chandapura, Hebbagodi, Muthanallur", "longitude" : 0, "latitude" : 0 },
{ "_id" : "vYvDvZtKGGuqizuet", "city" : "Bangalore", "pincode" : "560100", "area" : "Electronic City", "longitude" : 0, "latitude" : 0 },
{ "_id" : "2kYTCE9rWnrZscXjm", "city" : "Bangalore", "pincode" : "560102", "area" : "HSR Layout", "longitude" : 0, "latitude" : 0 }]